# From MPEC 2026-K60
C/1942 EA (Vaisala),e,37.8864,172.3277,335.5263,19.66451,0.0113026,0.93498220,350.6198,06/07.0/2026,2000,g 13.5,4.0
# From MPC194091
C/1995 O1 (Hale-Bopp),e,89.7555,281.7652,130.6999,180.9957,0.0004048,0.99490438,0.0000,03/29.0316/1997,2000,g -2.0,4.0
# From MPC194092
P/1996 R2 (Lagerkvist),e,2.5997,39.9882,333.5643,3.770820,0.1346016,0.31394441,358.7737,06/07.0/2026,2000,g 11.5,4.0
# From MPC194093
C/1997 BA6 (Spacewatch),e,72.7611,317.9399,285.9063,2856,0.0000065,0.99878870,0.0000,11/16.4280/1999,2000,g 10.0,2.0
# From MPC194095
P/1998 VS24 (LINEAR),e,5.0287,158.9800,245.0091,4.518798,0.1026053,0.24330807,312.9642,06/07.0/2026,2000,g 13.0,2.0
# From MPC194095
C/1999 F1 (Catalina),e,91.9763,20.0003,255.3131,15912,0.0000005,0.99963388,0.0000,01/27.8960/2002,2000,g  9.5,2.0
# From MPC194095
C/1999 J2 (Skiff),h,04/10.4958/2000,86.3936,50.2210,126.9460,1.000757,7.064698,2000,2.0,4.0
# From MPC194096
P/1999 RO28 (LONEOS),e,7.5226,136.9888,232.2013,3.428003,0.1552896,0.67275353,33.2444,06/07.0/2026,2000,g 20.0,2.0
# From MPC194097
P/1999 XN120 (Catalina),e,5.0270,285.2670,161.3255,4.195952,0.1146722,0.21410908,19.3453,06/07.0/2026,2000,g 13.5,2.0
# From MPC194098
P/2000 R2 (LINEAR),e,11.6863,160.2216,176.6624,3.468281,0.1525923,0.53024134,28.5785,06/07.0/2026,2000,g 18.0,4.0
# From MPC194099
P/2001 H5 (NEAT),e,8.3721,328.7365,224.5429,6.092133,0.0655466,0.60000142,255.3348,06/07.0/2026,2000,g 12.0,4.0
# From MPC194100
C/2001 M10 (NEAT),e,27.9583,293.9375,5.5997,26.69907,0.0071443,0.79929775,65.2760,06/07.0/2026,2000,g  8.0,4.0
# From MPC194101
C/2002 A1 (LINEAR),e,14.0736,81.0416,18.7460,16.04529,0.0153350,0.70965064,137.2883,06/07.0/2026,2000,g 12.5,2.0
# From MPC194101
C/2002 A2 (LINEAR),e,14.0420,81.0499,19.1019,15.89991,0.0155458,0.70730047,139.0665,06/07.0/2026,2000,g 11.0,2.0
# From MPC194101
C/2002 B1 (LINEAR),e,51.0198,58.3179,76.0399,9.872143,0.0317751,0.77071870,280.4831,06/07.0/2026,2000,g 11.5,4.0
# From MPC194101
C/2002 CE10 (LINEAR),e,145.3640,147.5739,126.2604,9.765152,0.0322987,0.78969374,270.6366,06/07.0/2026,2000,g 13.0,2.0
# From MPC194101
P/2002 EJ57 (LINEAR),e,4.9920,330.2163,167.3167,6.454149,0.0601098,0.59427035,174.7195,06/07.0/2026,2000,g 12.5,4.0
# From MPC194102
C/2002 L9 (NEAT),h,04/01.9477/2004,68.1835,110.4273,231.6522,1.000316,7.068209,2000,8.5,2.0
# From MPC194103
C/2002 VQ94 (LINEAR),e,70.5916,35.0165,99.8323,187.9362,0.0003826,0.96407906,2.8379,06/07.0/2026,2000,g  9.5,2.0
# From MPC194103
C/2003 A2 (Gleason),e,8.0717,154.4319,346.6178,11900,0.0000008,0.99904453,0.0000,11/10.4972/2003,2000,g  3.5,4.0
# From MPC194103
C/2003 E1 (NEAT),e,33.4911,137.2490,103.7839,13.76811,0.0192927,0.76229237,157.7076,06/07.0/2026,2000,g 12.5,2.0
# From MPC194104
P/2003 F2 (NEAT),e,11.5480,358.9359,193.1551,6.559191,0.0586717,0.53523022,140.9809,06/07.0/2026,2000,g 16.5,2.0
# From unp
P/2003 L1 (Scotti),e,9.0569,225.7512,355.1491,6.693774,0.0569112,0.25215632,122.6846,06/07.0/2026,2000,g  9.5,4.0
# From MPC194105
P/2003 T12 (SOHO),e,11.0139,174.5485,219.8315,2.584380,0.2372300,0.76994731,166.8720,06/07.0/2026,2000,g 17.0,4.0
# From MPC194106
C/2004 B1 (LINEAR),h,02/10.1035/2006,113.8167,273.3432,328.0165,1.000914,1.587366,2000,10.5,2.0
# From MPC194106
C/2004 C1 (Larsen),e,28.5652,151.4793,317.0835,11.73448,0.0245193,0.62969078,207.6736,06/07.0/2026,2000,g 13.5,2.0
# From MPC194106
P/2004 FY140 (LINEAR),e,2.1335,326.7745,241.9428,4.913863,0.0904835,0.16927983,0.9077,06/07.0/2026,2000,g 12.5,2.0
# From MPC194107
P/2004 R3 (LINEAR-NEAT),e,12.7722,305.3196,36.6870,4.737678,0.0955775,0.25673068,165.4369,06/07.0/2026,2000,g 14.5,4.0
# From MPC194107
C/2004 T3 (SidingSpring),e,71.8299,50.3426,259.8663,18332,0.0000004,0.99951381,0.0000,04/02.0263/2003,2000,g  2.5,4.0
# From MPC 75705
P/2004 V5 (LINEAR-Hill),e,19.3245,47.7253,87.1317,8.063957,0.0430409,0.45020693,341.7436,06/07.0/2026,2000,g  8.0,4.0
# From unp
P/2004 V5-A (LINEAR-Hill),e,19.3279,47.7523,87.0966,8.064806,0.0430341,0.45029178,341.7569,06/07.0/2026,2000,g  8.0,4.0
# From MPC194107
P/2004 V5-B,e,19.3281,47.7529,87.1032,8.065002,0.0430326,0.45030346,341.7091,06/07.0/2026,2000,g  8.0,4.0
# From MPC194108
P/2005 E1 (Tubbiolo),e,4.2648,335.7241,193.8003,7.071495,0.0524128,0.37760894,51.7858,06/07.0/2026,2000,g 10.0,4.0
# From MPC194108
P/2005 L1 (McNaught),e,11.0309,122.8734,172.7728,3.773809,0.1344418,0.30111416,193.2213,06/07.0/2026,2000,g  9.5,4.0
# From MPC194109
P/2005 S2 (Skiff),e,3.1390,161.1704,230.2923,7.980457,0.0437182,0.19814257,317.6864,06/07.0/2026,2000,g  7.5,4.0
# From MPC194109
P/2005 T3 (Read),e,6.2311,27.5759,7.3929,7.566052,0.0473587,0.17375877,356.0621,06/07.0/2026,2000,g  9.0,4.0
# From MPC194110
P/2006 HR30 (SidingSpring),e,31.9644,309.6541,117.6184,7.791905,0.0453146,0.84345075,321.2304,06/07.0/2026,2000,g 11.0,4.0
# From MPC194111
C/2006 S3 (LONEOS),h,04/18.4124/2012,166.0360,38.5267,140.0765,1.000712,5.102572,2000,2.0,4.0
# From MPC194112
C/2007 D1 (LINEAR),e,41.5215,170.9513,339.8679,1369,0.0000195,0.99361212,0.0000,06/17.3460/2007,2000,g  3.5,4.0
# From MPC194113
P/2007 K2 (Gibbs),e,7.5865,188.2267,347.0254,7.414128,0.0488218,0.68725919,348.6299,06/07.0/2026,2000,g 14.0,4.0
# From MPC194114
P/2007 S1 (Zhao),e,5.9570,141.3147,245.3363,3.819749,0.1320237,0.33757203,176.9240,06/07.0/2026,2000,g 13.0,4.0
# From MPC194115
C/2007 S2 (Lemmon),e,16.9215,296.1352,210.1645,12.49160,0.0223243,0.55766012,144.6023,06/07.0/2026,2000,g  6.5,4.0
# From MPC194115
C/2008 E1 (Catalina),e,34.8637,188.8482,270.4660,10.76432,0.0279077,0.55283318,181.2176,06/07.0/2026,2000,g  7.0,4.0
# From MPC194117
C/2008 S3 (Boattini),h,06/09.6334/2011,162.7362,54.9597,40.2533,1.001832,8.054172,2000,4.0,4.0
# From MPC194117
P/2008 Y3 (McNaught),e,38.7883,262.8823,238.1770,8.031439,0.0433026,0.44880618,275.7110,06/07.0/2026,2000,g  8.5,4.0
# From MPC194117
P/2009 B1 (Boattini),e,22.2614,297.0727,129.0714,6.721098,0.0565645,0.63577218,358.6875,06/07.0/2026,2000,g 13.0,4.0
# From MPC194118
C/2009 F4 (McNaught),e,79.2504,53.5020,260.5171,14221,0.0000006,0.99961453,0.0000,12/24.1100/2011,2000,g  3.0,4.0
# From MPC194118
C/2009 P1 (Garradd),e,106.1169,325.7538,90.5075,13766,0.0000006,0.99988844,0.0000,12/24.6004/2011,2000,g  4.0,4.0
# From MPC194119
P/2009 Q5 (McNaught),e,40.9269,160.1275,209.2278,7.428729,0.0486780,0.60906940,297.1643,06/07.0/2026,2000,g 10.0,4.0
# From MPC194119
P/2009 WX51 (Catalina),e,9.6026,31.4987,118.3149,3.083164,0.1820578,0.73976288,9.6371,06/07.0/2026,2000,g 19.0,2.0
# From MPC194120
P/2009 Y2 (Kowalski),e,29.9847,262.0522,172.3118,6.539665,0.0589347,0.63760782,348.8570,06/07.0/2026,2000,g 13.0,4.0
# From MPC194120
P/2010 C1 (Scotti),e,9.1142,141.7222,2.7327,7.135850,0.0517054,0.26482820,316.7513,06/07.0/2026,2000,g  9.5,4.0
# From MPC194120
P/2010 D2 (WISE),e,57.1418,319.8865,120.0639,6.711045,0.0566916,0.45131303,337.4508,06/07.0/2026,2000,g 16.0,4.0
# From MPC194121
P/2010 H2 (Vales),e,14.2779,64.1878,128.1386,3.835931,0.1311891,0.19813337,59.5270,06/07.0/2026,2000,g  6.0,4.0
# From MPC194121
P/2010 H4 (Scotti),e,2.3176,44.7509,179.0938,6.621434,0.0578464,0.26762238,339.8341,06/07.0/2026,2000,g 10.5,4.0
# From MPC194122
P/2010 H5 (Scotti),e,14.0579,24.4315,175.7208,7.165048,0.0513896,0.15745002,304.1733,06/07.0/2026,2000,g 13.0,2.0
# From MPC194122
P/2010 JC81 (WISE),e,38.7309,30.8114,12.5391,8.103919,0.0427230,0.77762863,235.4520,06/07.0/2026,2000,g  9.0,4.0
# From MPC194122
C/2010 L3 (Catalina),h,11/14.3274/2010,102.6143,38.3339,121.7250,1.000216,9.856843,2000,4.5,4.0
# From MPC194123
C/2010 S1 (LINEAR),h,05/21.9273/2013,125.4261,93.6466,118.6984,1.000810,5.897571,2000,3.5,4.0
# From MPC194123
P/2010 T2 (PANSTARRS),e,7.8704,57.9894,349.2156,5.555297,0.0752737,0.32357022,63.3455,06/07.0/2026,2000,g 11.5,4.0
# From MPC194123
C/2010 U3 (Boattini),h,03/01.2985/2019,55.5135,42.9957,88.1318,1.000504,8.442920,2000,1.0,4.0
# From MPC194123
P/2010 UH55 (Spacewatch),e,8.0389,232.7578,225.4349,6.642930,0.0575658,0.56457744,318.1783,06/07.0/2026,2000,g 11.0,4.0
# From MPC194123
P/2011 C2 (Gibbs),e,10.9010,12.1390,160.2038,7.403579,0.0489262,0.27206448,258.8994,06/07.0/2026,2000,g  9.0,4.0
# From MPC194123
P/2011 FR143 (Lemmon),e,15.9609,190.9120,349.5161,6.888944,0.0545099,0.45326061,307.1900,06/07.0/2026,2000,g 14.0,2.0
# From MPC194124
C/2011 J2 (LINEAR),h,12/19.3635/2013,122.8600,164.0862,85.4804,1.000251,3.468127,2000,5.5,3.6
# From MPC194124
P/2011 JB15 (Spacewatch-Boattini),e,19.1375,153.6328,110.5009,7.383983,0.0491211,0.31567459,259.8178,06/07.0/2026,2000,g  9.0,4.0
# From MPC194124
C/2011 KP36 (Spacewatch),e,18.9504,173.4263,180.9441,39.32438,0.0039968,0.87470741,14.6531,06/07.0/2026,2000,g  4.5,4.0
# From MPC194125
P/2011 N1 (ASH),e,35.7941,77.5686,330.5880,6.229889,0.0633846,0.54512970,323.7271,06/07.0/2026,2000,g 11.5,4.0
# From MPC194125
P/2011 P1 (McNaught),e,5.6499,4.1674,349.1557,7.466251,0.0483115,0.32585422,279.8526,06/07.0/2026,2000,g  9.0,4.0
# From MPC194125
C/2011 P2 (PANSTARRS),e,8.9860,203.9079,76.1820,9.764596,0.0323015,0.36524756,186.7183,06/07.0/2026,2000,g  8.5,4.0
# From MPC194125
P/2011 S1 (Gibbs),e,2.6871,218.8094,193.1619,8.603911,0.0390535,0.20003140,168.1724,06/07.0/2026,2000,g  8.0,4.0
# From MPC194126
P/2011 V1 (Boattini),e,7.3821,46.4907,269.5846,3.858045,0.1300628,0.54836105,5.7766,06/07.0/2026,2000,g 15.5,4.0
# From MPC194126
P/2011 W1 (PANSTARRS),e,3.7164,161.7381,283.1917,4.676719,0.0974523,0.28811301,153.8116,06/07.0/2026,2000,g 11.5,4.0
# From MPC194126
P/2011 Y2 (Boattini),e,6.3943,309.2713,132.1531,6.223764,0.0634782,0.71108828,329.3675,06/07.0/2026,2000,g 15.0,4.0
# From MPC194126
C/2012 A1 (PANSTARRS),e,121.0172,277.8570,191.9784,12364,0.0000007,0.99938331,0.0000,11/28.7550/2013,2000,g  6.0,4.0
# From unp
P/2012 A3 (SOHO),e,11.0133,174.5503,219.8350,2.584376,0.2372305,0.76994728,166.8736,06/07.0/2026,2000,g 17.0,4.0
# From MPC194127
P/2012 B1 (PANSTARRS),e,7.6053,36.2096,161.8404,6.545846,0.0588512,0.41069392,279.4477,06/07.0/2026,2000,g  9.0,4.0
# From MPC194127
